KUZGTU 1 (RS47S)        
1 57217U 23091AV  26183.79558689  .00013468  00000+0  46207-3 0  9997
2 57217  97.5054 248.4372 0011359  48.7469 311.4748 15.30223757166760
SONATE-2                
1 59112U 24043Q   26183.66855591  .00042661  00000+0  52869-3 0  9997
2 59112  97.5548 335.0278 0007227 145.6904 214.4821 15.59918243130309
MESAT1                  
1 60209U 24125G   26183.58951882  .00059526  00000+0  60393-3 0  9997
2 60209  97.2264  41.4395 0010893 152.1911 207.9933 15.64971704111972
OOV-CUBE (TUBSAT-30)    
1 60240U 24128F   26183.69186645  .00002197  00000+0  17578-3 0  9993
2 60240  61.9926 171.5059 0042718 137.2336 223.2093 15.02831807108445
COLIBRI-S (RS67S)       
1 61746U 24199M   26183.83415604  .00027488  00000+0  51920-3 0  9998
2 61746  97.2966  57.8355 0007359 207.7046 152.3814 15.48382814139830
HORS 3 (RS81S)          
1 61753U 24199U   26183.85054839  .00039885  00000+0  57091-3 0  9996
2 61753  97.2948  60.0130 0005400 197.3242 162.7829 15.56084910139995
HORS 4 (RS82S)          
1 61754U 24199V   26183.82613934  .00063967  00000+0  75239-3 0  9993
2 61754  97.2893  61.2948 0005459 185.4141 174.7059 15.61211539140080
SIT-2086                
1 61764U 24199AF  26183.84784532  .00042072  00000+0  64483-3 0  9992
2 61764  97.2904  60.4326 0006714 183.1663 176.9550 15.54191791136864
HYPERVIEW 1G (RS66S)    
1 61772U 24199AP  26183.78900383  .00172335  00000+0  88821-3 0  9996
2 61772  97.2835  64.3457 0007248 173.6337 186.5025 15.80649712137134
ALTAIR (RS65S)          
1 61779U 24199AW  26183.86555944  .00011467  00000+0  31502-3 0  9993
2 61779  97.3004  53.1142 0010933 245.2857 114.7250 15.37327947139528
ASRTU-1 (AO-123)        
1 61781U 24199AY  26183.86753546  .00009249  00000+0  26636-3 0  9991
2 61781  97.2976  52.3974 0011983 249.3098 110.6862 15.35901128136337
SAMSAT-IONOSPHERE (RS7*)
1 61784U 24199BB  26183.85645041  .00050414  00000+0  64484-3 0  9996
2 61784  97.2914  60.1256 0007546 203.4591 156.6322 15.59042093140004
RTU MIREA 1 (RS51S)     
1 61785U 24199BC  26183.84446637  .00072931  00000+0  80290-3 0  9997
2 61785  97.2902  61.0294 0007694 196.1985 163.9029 15.62876232136917
TEVEL2-4                
1 63213U 25052D   26183.69844727  .00020076  00000+0  58950-3 0  9990
2 63213  97.3884  80.1195 0004576  74.9021 285.2729 15.35166142 72496
TEVEL2-5                
1 63214U 25052E   26183.65553744  .00020032  00000+0  59165-3 0  9994
2 63214  97.3882  80.0199 0004562  76.4185 283.7567 15.34983167 72486
TEVEL2-6                
1 63215U 25052F   26183.21188050  .00021402  00000+0  63291-3 0  9998
2 63215  97.3892  79.5600 0004421  78.1313 282.0426 15.34930714 72413
TEVEL2-1                
1 63217U 25052H   26183.44186485  .00021382  00000+0  64322-3 0  9998
2 63217  97.3860  79.3967 0004940  84.7539 275.4267 15.34387675 72436
TEVEL2-3                
1 63218U 25052J   26183.24029755  .00021076  00000+0  63306-3 0  9994
2 63218  97.3861  79.2186 0004748  86.3332 273.8453 15.34438788 72403
TEVEL2-2                
1 63219U 25052K   26183.70293908  .00019229  00000+0  57850-3 0  9993
2 63219  97.3858  79.6604 0004948  84.6363 275.5445 15.34405681 72479
OTP-2                   
1 63235U 25052AB  26183.45917993  .00009046  00000+0  37378-3 0  9999
2 63235  97.3853  75.6616 0008232 105.0743 255.1406 15.24193128 72190
TEVEL2-9                
1 63237U 25052AD  26183.43940053  .00019073  00000+0  61120-3 0  9995
2 63237  97.3923  78.7387 0008264  91.0413 269.1776 15.32374933 72360
TEVEL2-7                
1 63238U 25052AE  26183.67923458  .00016900  00000+0  54711-3 0  9996
2 63238  97.3925  78.8874 0008366  90.4399 269.7802 15.32073469 72393
TEVEL2-8                
1 63239U 25052AF  26183.68763698  .00016814  00000+0  54458-3 0  9998
2 63239  97.3922  78.8721 0008399  90.8583 269.3621 15.32059240 72393
INNOSAT 16 (RS92S7)     
1 64878U 25155C   26183.87554192  .00007432  00000+0  29454-3 0  9994
2 64878  97.4576 150.9553 0012118 125.1654 235.0721 15.25627154 83063
GEOSCAN 6 (RS92S6)      
1 64879U 25155D   26183.87499638  .00012469  00000+0  42526-3 0  9999
2 64879  97.4567 152.4910 0009802 116.3513 243.8735 15.30449968 83164
GEOSCAN 1 (RS92S1)      
1 64880U 25155E   26183.87118890  .00014172  00000+0  47355-3 0  9997
2 64880  97.4563 152.6489 0009761 116.4099 243.8145 15.31080046 83174
239ALFEROV (RS61S)      
1 64881U 25155F   26183.81795385  .00017039  00000+0  52953-3 0  9997
2 64881  97.4564 153.2105 0009430 115.4517 244.7702 15.33370579 83203
GEOSCAN 2 (RS92S2)      
1 64890U 25155Q   26183.86214173  .00014215  00000+0  47126-3 0  9992
2 64890  97.4562 152.7985 0009203 105.9320 254.2936 15.31338970 83184
GEOSCAN 5 (RS92S5)      
1 64891U 25155R   26183.86900569  .00018341  00000+0  56423-3 0  9998
2 64891  97.4555 153.4052 0008384 118.9139 241.2945 15.33686893 83224
GEOSCAN 4 (RS92S4)      
1 64892U 25155S   26183.85158942  .00018474  00000+0  56542-3 0  9997
2 64892  97.4559 153.4408 0008394 118.7556 241.4531 15.33848857 83229
