OBJECT_NAME,OBJECT_ID,EPOCH,MEAN_MOTION,ECCENTRICITY,INCLINATION,RA_OF_ASC_NODE,ARG_OF_PERICENTER,MEAN_ANOMALY,EPHEMERIS_TYPE,CLASSIFICATION_TYPE,NORAD_CAT_ID,ELEMENT_SET_NO,REV_AT_EPOCH,BSTAR,MEAN_MOTION_DOT,MEAN_MOTION_DDOT
KUZGTU 1 (RS47S),2023-091AV,2026-07-02T19:05:38.707296,15.30223757,.00113599,97.5054,248.4372,48.7469,311.4748,0,U,57217,999,16676,.4620717E-3,.13468E-3,0
SONATE-2,2024-043Q,2026-07-02T16:02:43.230624,15.59918243,.00072275,97.5548,335.0278,145.6904,214.4821,0,U,59112,999,13030,.52869304E-3,.42661E-3,0
MESAT1,2024-125G,2026-07-02T14:08:54.426048,15.64971704,.0010893,97.2264,41.4395,152.1911,207.9933,0,U,60209,999,11197,.60393E-3,.59526E-3,0
OOV-CUBE (TUBSAT-30),2024-128F,2026-07-02T16:36:17.261280,15.02831807,.00427186,61.9926,171.5059,137.2336,223.2093,0,U,60240,999,10844,.17577932E-3,.2197E-4,0
COLIBRI-S (RS67S),2024-199M,2026-07-02T20:01:11.081856,15.48382814,.00073594,97.2966,57.8355,207.7046,152.3814,0,U,61746,999,13983,.51920478E-3,.27488E-3,0
HORS 3 (RS81S),2024-199U,2026-07-02T20:24:47.380896,15.56084910,.00054002,97.2948,60.0130,197.3242,162.7829,0,U,61753,999,13999,.5709054E-3,.39885E-3,0
HORS 4 (RS82S),2024-199V,2026-07-02T19:49:38.438976,15.61211539,.00054594,97.2893,61.2948,185.4141,174.7059,0,U,61754,999,14008,.75238555E-3,.63967E-3,0
SIT-2086,2024-199AF,2026-07-02T20:20:53.835648,15.54191791,.00067143,97.2904,60.4326,183.1663,176.9550,0,U,61764,999,13686,.64483021E-3,.42072E-3,0
HYPERVIEW 1G (RS66S),2024-199AP,2026-07-02T18:56:09.930912,15.80649712,.00072489,97.2835,64.3457,173.6337,186.5025,0,U,61772,999,13713,.88821454E-3,.172335E-2,0
ALTAIR (RS65S),2024-199AW,2026-07-02T20:46:24.335616,15.37327947,.00109338,97.3004,53.1142,245.2857,114.7250,0,U,61779,999,13952,.31501677E-3,.11467E-3,0
ASRTU-1 (AO-123),2024-199AY,2026-07-02T20:49:15.063744,15.35901128,.00119835,97.2976,52.3974,249.3098,110.6862,0,U,61781,999,13633,.26636055E-3,.9249E-4,0
SAMSAT-IONOSPHERE (RS75S),2024-199BB,2026-07-02T20:33:17.315424,15.59042093,.00075469,97.2914,60.1256,203.4591,156.6322,0,U,61784,999,14000,.6448412E-3,.50414E-3,0
RTU MIREA 1 (RS51S),2024-199BC,2026-07-02T20:16:01.894368,15.62876232,.00076941,97.2902,61.0294,196.1985,163.9029,0,U,61785,999,13691,.8028978E-3,.72931E-3,0
TEVEL2-4,2025-052D,2026-07-02T16:45:45.844128,15.35166142,.00045764,97.3884,80.1195,74.9021,285.2729,0,U,63213,999,7249,.58950445E-3,.20076E-3,0
TEVEL2-5,2025-052E,2026-07-02T15:43:58.434816,15.34983167,.00045622,97.3882,80.0199,76.4185,283.7567,0,U,63214,999,7248,.59164841E-3,.20032E-3,0
TEVEL2-6,2025-052F,2026-07-02T05:05:06.475200,15.34930714,.0004421,97.3892,79.5600,78.1313,282.0426,0,U,63215,999,7241,.63291E-3,.21402E-3,0
TEVEL2-1,2025-052H,2026-07-02T10:36:17.123040,15.34387675,.000494,97.3860,79.3967,84.7539,275.4267,0,U,63217,999,7243,.64322E-3,.21382E-3,0
TEVEL2-3,2025-052J,2026-07-02T05:46:01.708320,15.34438788,.0004748,97.3861,79.2186,86.3332,273.8453,0,U,63218,999,7240,.63306E-3,.21076E-3,0
TEVEL2-2,2025-052K,2026-07-02T16:52:13.936512,15.34405681,.00049483,97.3858,79.6604,84.6363,275.5445,0,U,63219,999,7247,.57850122E-3,.19229E-3,0
OTP-2,2025-052AB,2026-07-02T11:01:13.145952,15.24193128,.0008232,97.3853,75.6616,105.0743,255.1406,0,U,63235,999,7219,.37378E-3,.9046E-4,0
TEVEL2-9,2025-052AD,2026-07-02T10:32:44.205792,15.32374933,.0008264,97.3923,78.7387,91.0413,269.1776,0,U,63237,999,7236,.6112E-3,.19073E-3,0
TEVEL2-7,2025-052AE,2026-07-02T16:18:05.867712,15.32073469,.00083667,97.3925,78.8874,90.4399,269.7802,0,U,63238,999,7239,.54710859E-3,.169E-3,0
TEVEL2-8,2025-052AF,2026-07-02T16:30:11.835072,15.32059240,.00083995,97.3922,78.8721,90.8583,269.3621,0,U,63239,999,7239,.54458028E-3,.16814E-3,0
INNOSAT 16 (RS92S7),2025-155C,2026-07-02T21:00:46.821888,15.25627154,.00121184,97.4576,150.9553,125.1654,235.0721,0,U,64878,999,8306,.29453925E-3,.7432E-4,0
GEOSCAN 6 (RS92S6),2025-155D,2026-07-02T20:59:59.687232,15.30449968,.00098022,97.4567,152.4910,116.3513,243.8735,0,U,64879,999,8316,.42526183E-3,.12469E-3,0
GEOSCAN 1 (RS92S1),2025-155E,2026-07-02T20:54:30.720960,15.31080046,.00097611,97.4563,152.6489,116.4099,243.8145,0,U,64880,999,8317,.47355322E-3,.14172E-3,0
239ALFEROV (RS61S),2025-155F,2026-07-02T19:37:51.212640,15.33370579,.00094309,97.4564,153.2105,115.4517,244.7702,0,U,64881,999,8320,.52953037E-3,.17039E-3,0
GEOSCAN 2 (RS92S2),2025-155Q,2026-07-02T20:41:29.045472,15.31338970,.00092037,97.4562,152.7985,105.9320,254.2936,0,U,64890,999,8318,.4712647E-3,.14215E-3,0
GEOSCAN 5 (RS92S5),2025-155R,2026-07-02T20:51:22.091616,15.33686893,.00083845,97.4555,153.4052,118.9139,241.2945,0,U,64891,999,8322,.5642307E-3,.18341E-3,0
GEOSCAN 4 (RS92S4),2025-155S,2026-07-02T20:26:17.325888,15.33848857,.0008394,97.4559,153.4408,118.7556,241.4531,0,U,64892,999,8322,.56541756E-3,.18474E-3,0
